DELTA 2 R/B(1)          
1 20453U 90008B   26002.02672951  .00073093  00000+0  11036-2 0  9997
2 20453  35.6053 249.3558 0106329   2.3962 357.7263 15.47215793915773
COSMOS 2058             
1 20465U 90010A   26001.76301681  .00008076  00000+0  48549-3 0  9991
2 20465  82.4720 113.3370 0009982 200.5542 159.5288 15.10696117932139
SL-14 R/B               
1 20466U 90010B   26001.98068012  .00000883  00000+0  10414-3 0  9992
2 20466  82.5030 330.0367 0020385 155.5595 204.6591 14.83494897918599
SL-14 R/B               
1 20511U 90018B   26002.13680186  .00000883  00000+0  10806-3 0  9996
2 20511  82.5221 285.3021 0015335 315.1133  44.8840 14.82072392912723
HST                     
1 20580U 90037B   26001.71032804  .00011638  00000+0  40139-3 0  9996
2 20580  28.4657 136.5263 0002604  92.0873 268.0020 15.28338358763051
SL-16 R/B               
1 20625U 90046B   26002.17604191  .00000287  00000+0  17248-3 0  9994
2 20625  70.9993  77.6044 0012671  38.7544 321.4485 14.14999651838982
COSMOS 2084             
1 20663U 90055A   26001.96500962  .00005251  00000+0  37734-3 0  9991
2 20663  62.7889 203.0722 0028418 177.5920 182.5323 15.05158119926275
SL-6 R/B(2)             
1 20666U 90055D   26001.72516262  .00004908  00000+0  37458-3 0  9999
2 20666  62.7837 121.5029 0015165 322.0080  37.9949 15.03193129928125
SL-8 R/B                
1 20775U 90078B   26001.92800948  .00021087  00000+0  64721-3 0  9994
2 20775  82.9061 311.2297 0369369 237.9009 118.5862 14.86670272799379
SL-8 R/B                
1 21088U 91006B   26002.09944546  .00000059  00000+0  43872-4 0  9997
2 21088  82.9409 219.5684 0021617 219.5960 252.7908 13.77492874754907
OKEAN-3                 
1 21397U 91039A   26002.10477116  .00005767  00000+0  41186-3 0  9998
2 21397  82.5157  41.3322 0013892 190.6846 169.4088 15.04263678855022
