CCSDS_OMM_VERS = 2.0
CREATION_DATE  = 
ORIGINATOR     = 

OBJECT_NAME    = DELTA 2 R/B(1)
OBJECT_ID      = 1990-008B
CENTER_NAME    = EARTH
REF_FRAME      = TEME
TIME_SYSTEM    = UTC
MEAN_ELEMENT_THEORY = SGP/SGP4

EPOCH          = 2026-01-02T00:38:29.429664
MEAN_MOTION    = 15.47215793
ECCENTRICITY   = .0106329
INCLINATION    = 35.6053
RA_OF_ASC_NODE = 249.3558
ARG_OF_PERICENTER = 2.3962
MEAN_ANOMALY   = 357.7263

EPHEMERIS_TYPE = 0
CLASSIFICATION_TYPE = U
NORAD_CAT_ID   = 20453
ELEMENT_SET_NO = 999
REV_AT_EPOCH   = 91577
BSTAR          = .11036E-2
MEAN_MOTION_DOT = .73093E-3
MEAN_MOTION_DDOT = 0

CCSDS_OMM_VERS = 2.0
CREATION_DATE  = 
ORIGINATOR     = 

OBJECT_NAME    = COSMOS 2058
OBJECT_ID      = 1990-010A
CENTER_NAME    = EARTH
REF_FRAME      = TEME
TIME_SYSTEM    = UTC
MEAN_ELEMENT_THEORY = SGP/SGP4

EPOCH          = 2026-01-01T18:18:44.652384
MEAN_MOTION    = 15.10696117
ECCENTRICITY   = .00099823
INCLINATION    = 82.4720
RA_OF_ASC_NODE = 113.3370
ARG_OF_PERICENTER = 200.5542
MEAN_ANOMALY   = 159.5288

EPHEMERIS_TYPE = 0
CLASSIFICATION_TYPE = U
NORAD_CAT_ID   = 20465
ELEMENT_SET_NO = 999
REV_AT_EPOCH   = 93213
BSTAR          = .48549179E-3
MEAN_MOTION_DOT = .8076E-4
MEAN_MOTION_DDOT = 0

CCSDS_OMM_VERS = 2.0
CREATION_DATE  = 
ORIGINATOR     = 

OBJECT_NAME    = SL-14 R/B
OBJECT_ID      = 1990-010B
CENTER_NAME    = EARTH
REF_FRAME      = TEME
TIME_SYSTEM    = UTC
MEAN_ELEMENT_THEORY = SGP/SGP4

EPOCH          = 2026-01-01T23:32:10.762368
MEAN_MOTION    = 14.83494897
ECCENTRICITY   = .0020385
INCLINATION    = 82.5030
RA_OF_ASC_NODE = 330.0367
ARG_OF_PERICENTER = 155.5595
MEAN_ANOMALY   = 204.6591

EPHEMERIS_TYPE = 0
CLASSIFICATION_TYPE = U
NORAD_CAT_ID   = 20466
ELEMENT_SET_NO = 999
REV_AT_EPOCH   = 91859
BSTAR          = .10414E-3
MEAN_MOTION_DOT = .883E-5
MEAN_MOTION_DDOT = 0

CCSDS_OMM_VERS = 2.0
CREATION_DATE  = 
ORIGINATOR     = 

OBJECT_NAME    = SL-14 R/B
OBJECT_ID      = 1990-018B
CENTER_NAME    = EARTH
REF_FRAME      = TEME
TIME_SYSTEM    = UTC
MEAN_ELEMENT_THEORY = SGP/SGP4

EPOCH          = 2026-01-02T03:16:59.680704
MEAN_MOTION    = 14.82072392
ECCENTRICITY   = .0015335
INCLINATION    = 82.5221
RA_OF_ASC_NODE = 285.3021
ARG_OF_PERICENTER = 315.1133
MEAN_ANOMALY   = 44.8840

EPHEMERIS_TYPE = 0
CLASSIFICATION_TYPE = U
NORAD_CAT_ID   = 20511
ELEMENT_SET_NO = 999
REV_AT_EPOCH   = 91272
BSTAR          = .10806E-3
MEAN_MOTION_DOT = .883E-5
MEAN_MOTION_DDOT = 0

CCSDS_OMM_VERS = 2.0
CREATION_DATE  = 
ORIGINATOR     = 

OBJECT_NAME    = HST
OBJECT_ID      = 1990-037B
CENTER_NAME    = EARTH
REF_FRAME      = TEME
TIME_SYSTEM    = UTC
MEAN_ELEMENT_THEORY = SGP/SGP4

EPOCH          = 2026-01-01T17:02:52.342656
MEAN_MOTION    = 15.28338358
ECCENTRICITY   = .0002604
INCLINATION    = 28.4657
RA_OF_ASC_NODE = 136.5263
ARG_OF_PERICENTER = 92.0873
MEAN_ANOMALY   = 268.0020

EPHEMERIS_TYPE = 0
CLASSIFICATION_TYPE = U
NORAD_CAT_ID   = 20580
ELEMENT_SET_NO = 999
REV_AT_EPOCH   = 76305
BSTAR          = .40138616E-3
MEAN_MOTION_DOT = .11638E-3
MEAN_MOTION_DDOT = 0

CCSDS_OMM_VERS = 2.0
CREATION_DATE  = 
ORIGINATOR     = 

OBJECT_NAME    = SL-16 R/B
OBJECT_ID      = 1990-046B
CENTER_NAME    = EARTH
REF_FRAME      = TEME
TIME_SYSTEM    = UTC
MEAN_ELEMENT_THEORY = SGP/SGP4

EPOCH          = 2026-01-02T04:13:30.021024
MEAN_MOTION    = 14.14999651
ECCENTRICITY   = .0012671
INCLINATION    = 70.9993
RA_OF_ASC_NODE = 77.6044
ARG_OF_PERICENTER = 38.7544
MEAN_ANOMALY   = 321.4485

EPHEMERIS_TYPE = 0
CLASSIFICATION_TYPE = U
NORAD_CAT_ID   = 20625
ELEMENT_SET_NO = 999
REV_AT_EPOCH   = 83898
BSTAR          = .17248E-3
MEAN_MOTION_DOT = .287E-5
MEAN_MOTION_DDOT = 0

CCSDS_OMM_VERS = 2.0
CREATION_DATE  = 
ORIGINATOR     = 

OBJECT_NAME    = COSMOS 2084
OBJECT_ID      = 1990-055A
CENTER_NAME    = EARTH
REF_FRAME      = TEME
TIME_SYSTEM    = UTC
MEAN_ELEMENT_THEORY = SGP/SGP4

EPOCH          = 2026-01-01T23:09:36.831168
MEAN_MOTION    = 15.05158119
ECCENTRICITY   = .0028418
INCLINATION    = 62.7889
RA_OF_ASC_NODE = 203.0722
ARG_OF_PERICENTER = 177.5920
MEAN_ANOMALY   = 182.5323

EPHEMERIS_TYPE = 0
CLASSIFICATION_TYPE = U
NORAD_CAT_ID   = 20663
ELEMENT_SET_NO = 999
REV_AT_EPOCH   = 92627
BSTAR          = .37734E-3
MEAN_MOTION_DOT = .5251E-4
MEAN_MOTION_DDOT = 0

CCSDS_OMM_VERS = 2.0
CREATION_DATE  = 
ORIGINATOR     = 

OBJECT_NAME    = SL-6 R/B(2)
OBJECT_ID      = 1990-055D
CENTER_NAME    = EARTH
REF_FRAME      = TEME
TIME_SYSTEM    = UTC
MEAN_ELEMENT_THEORY = SGP/SGP4

EPOCH          = 2026-01-01T17:24:14.050368
MEAN_MOTION    = 15.03193129
ECCENTRICITY   = .00151658
INCLINATION    = 62.7837
RA_OF_ASC_NODE = 121.5029
ARG_OF_PERICENTER = 322.0080
MEAN_ANOMALY   = 37.9949

EPHEMERIS_TYPE = 0
CLASSIFICATION_TYPE = U
NORAD_CAT_ID   = 20666
ELEMENT_SET_NO = 999
REV_AT_EPOCH   = 92812
BSTAR          = .37458456E-3
MEAN_MOTION_DOT = .4908E-4
MEAN_MOTION_DDOT = 0

CCSDS_OMM_VERS = 2.0
CREATION_DATE  = 
ORIGINATOR     = 

OBJECT_NAME    = SL-8 R/B
OBJECT_ID      = 1990-078B
CENTER_NAME    = EARTH
REF_FRAME      = TEME
TIME_SYSTEM    = UTC
MEAN_ELEMENT_THEORY = SGP/SGP4

EPOCH          = 2026-01-01T22:16:20.019072
MEAN_MOTION    = 14.86670272
ECCENTRICITY   = .0369369
INCLINATION    = 82.9061
RA_OF_ASC_NODE = 311.2297
ARG_OF_PERICENTER = 237.9009
MEAN_ANOMALY   = 118.5862

EPHEMERIS_TYPE = 0
CLASSIFICATION_TYPE = U
NORAD_CAT_ID   = 20775
ELEMENT_SET_NO = 999
REV_AT_EPOCH   = 79937
BSTAR          = .64721E-3
MEAN_MOTION_DOT = .21087E-3
MEAN_MOTION_DDOT = 0

CCSDS_OMM_VERS = 2.0
CREATION_DATE  = 
ORIGINATOR     = 

OBJECT_NAME    = SL-8 R/B
OBJECT_ID      = 1991-006B
CENTER_NAME    = EARTH
REF_FRAME      = TEME
TIME_SYSTEM    = UTC
MEAN_ELEMENT_THEORY = SGP/SGP4

EPOCH          = 2026-01-02T02:23:12.087744
MEAN_MOTION    = 13.77492874
ECCENTRICITY   = .0021617
INCLINATION    = 82.9409
RA_OF_ASC_NODE = 219.5684
ARG_OF_PERICENTER = 219.5960
MEAN_ANOMALY   = 252.7908

EPHEMERIS_TYPE = 0
CLASSIFICATION_TYPE = U
NORAD_CAT_ID   = 21088
ELEMENT_SET_NO = 999
REV_AT_EPOCH   = 75490
BSTAR          = .43872E-4
MEAN_MOTION_DOT = .59E-6
MEAN_MOTION_DDOT = 0

CCSDS_OMM_VERS = 2.0
CREATION_DATE  = 
ORIGINATOR     = 

OBJECT_NAME    = OKEAN-3
OBJECT_ID      = 1991-039A
CENTER_NAME    = EARTH
REF_FRAME      = TEME
TIME_SYSTEM    = UTC
MEAN_ELEMENT_THEORY = SGP/SGP4

EPOCH          = 2026-01-02T02:30:52.228224
MEAN_MOTION    = 15.04263678
ECCENTRICITY   = .0013892
INCLINATION    = 82.5157
RA_OF_ASC_NODE = 41.3322
ARG_OF_PERICENTER = 190.6846
MEAN_ANOMALY   = 169.4088

EPHEMERIS_TYPE = 0
CLASSIFICATION_TYPE = U
NORAD_CAT_ID   = 21397
ELEMENT_SET_NO = 999
REV_AT_EPOCH   = 85502
BSTAR          = .41186E-3
MEAN_MOTION_DOT = .5767E-4
MEAN_MOTION_DDOT = 0

